full_name,a,e,i,om,w,q,ad,per_y,H,diameter,extent,albedo,rot_per,GM,BV,UB,IR,spec_B,spec_T
"  5731 Zeus (1988 VP4)",2.263512464312013,.6536703104610625,11.43083214879462,281.7126199237264,216.9748800979983,.7839215690326947,3.743103359591331,3.40551296309484,15.7,,,,,,,,,,
"  5751 Zao (1992 AC)",2.103266942034308,.4236567763222114,16.07487413803762,121.6965954028017,25.21681114201939,1.212203649626977,2.994330234441638,3.05035086066851,14.6,2.3,,0.36,76.,,,,,X,
"  5786 Talos (1991 RC)",1.081466964123331,.8268023226616752,23.23219017962221,161.3148845737483,8.340003002158909,.1873075663042903,1.975626361942371,1.1246777113378,17.1,,,,38.52,,,,,,
"  5797 Bivoj (1980 AA)",1.893423283299921,.4441962991128384,4.188357066895543,299.0068011740009,168.414531458718,1.052371668204016,2.734474898395824,2.60543217613549,18.8,0.4,,,2.706,,,,,,
"  5828 (1991 AM)",1.697899123289142,.6954839266522875,30.1169997776913,125.4537621819887,152.7313685541002,.5170375739645332,2.878760672613752,2.21246306039564,15.9,,,,2.6666,,,,,Q,
"  5836 (1993 MF)",2.446392145939603,.5341876514018499,7.950328443915731,239.3825712472074,77.17350047377947,1.139559671092195,3.753224620787011,3.82646119083404,14.7,,,,4.9543,,,,,S,
"  5863 Tara (1983 RB)",2.220905458181533,.5071318680754868,19.47153089692312,169.0142179882449,115.3614886165107,1.094613524354887,3.347197392008179,3.30981187217825,15.6,,,,,,,,,,
"  5869 Tanith (1988 VN4)",1.812354427852311,.3211282243082236,17.92920254791258,227.9317744560458,230.7333895963566,1.230356268618952,2.394352587085671,2.4399049159921,17.2,,,,,,,,,,
"  5879 Almeria (1992 CH1)",1.624562227704384,.289346130484314,21.57528152285317,145.8758405816083,355.6786276222857,1.154501433387144,2.094623022021624,2.07067876254071,17.4,,,,,,,,,,
"  6037 (1988 EG)",1.271131872178059,.499611849116755,3.497419359928713,182.5903321609338,241.9883111429945,.6360593270479363,1.906204417308182,1.43315813998527,18.7,,,,2.760,,,,,,
"  6047 (1991 TB1)",1.454412701841672,.3521788997207563,23.47282075550857,6.131235180159542,103.7540746233173,.9421992367671795,1.966626166916164,1.75404079702087,17.8,,,,,,,,,S,
"  6050 Miwablock (1992 AE)",2.203398510183854,.4355640164843179,6.404478572949753,88.39146682135332,284.6917418701172,1.243677405172612,3.163119615195096,3.27075323369419,14.8,,,,5.7566,,,,,,
"  6053 (1993 BW3)",2.147759882439061,.5282599777809077,21.58657716421247,318.3692297046804,74.86800273181524,1.013184294663078,3.282335470215044,3.14765257942007,14.9,,,,2.573,,,,,Sq,
"  6063 Jason (1984 KB)",2.212339745221278,.7664401343109688,4.918747173435326,169.4632018960128,337.0685725119444,.5167137737523872,3.907965716690169,3.29068214442703,15.9,1.4,,0.21,,,,,,,
"  6178 (1986 DA)",2.821928367172383,.5817041971284576,4.304854625588319,64.68107180619114,127.2770757852696,1.180400791992353,4.463455942352414,4.7405330657318,15.1,2.3,,0.15,3.50,,.677,.267,,,
"  6239 Minos (1989 QF)",1.151583348111111,.4127445385334348,3.944958120094725,344.6244371756761,239.6841155258427,.6762736105122028,1.626893085710019,1.23580875266353,18.4,,,,3.5558,,,,,,
"  6455 (1992 HE)",2.241291829079693,.5721118853815634,37.32501471990203,27.04429301616288,262.6870531496286,.9590221350546171,3.523561523104769,3.35548895827734,13.8,,,,2.736,,,,,S,
"  6456 Golombek (1992 OM)",2.192741297396231,.4094164866444296,8.226237725394009,313.6304801270418,347.1309674764076,1.294996859296118,3.090485735496344,3.24705239349294,15.9,,,,2.50129,,,,,,
"  6489 Golevka (1991 JX)",2.511135863955208,.6018152859634067,2.28517930468465,212.0832569760337,65.34530103299359,.999895915896038,4.022375812014378,3.9793626398885,19.2,0.53,,0.151,6.026,,,,,Q,
"  6491 (1991 OA)",2.5030403809777,.5905939780141216,5.944509880125589,301.9389353352129,323.5177079234704,1.024759805246098,3.981320956709303,3.96013495581216,18.8,,,,2.69,,,,,,
"  6569 Ondaatje (1993 MO)",1.626230420232565,.2210321797741226,22.64276156804098,111.5064546964652,167.2792963426524,1.266781165633574,1.985679674831557,2.0738690165624,16.4,,,,5.959,,,,,Sr,
"  6611 (1993 VW)",1.695917295901571,.4844837237513716,8.6962108491396,230.9818185719193,281.2995796758845,.8742729692088214,2.517561622594321,2.20859053337873,16.8,,,,2.5568,,,,,V,
"  7025 (1993 QA)",1.475732976153558,.3150592310318473,12.60668412316542,146.6481012958989,323.3828786488248,1.010789679478279,1.940676272828838,1.79275059456506,18.3,,,,2.5057,,,,,,
"  7088 Ishtar (1992 AA)",1.980767173554828,.3907326388381754,8.300909407675487,102.6867122047101,354.7089702252028,1.206816788907716,2.754717558201941,2.78777903213502,16.7,,,,2.6790,,,,,,
"  7092 Cadmus (1992 LC)",2.53547722914309,.69798505119193,17.80687281425613,57.74487888324787,93.75529054557416,.7657520255636777,4.305202432722503,4.03736277157173,15.0,,,,,,,,,,
"  7236 (1987 PA)",2.724446901196466,.559522492169834,16.33159121426359,308.5430515535983,337.9145370846525,1.200057581254638,4.248836221138295,4.49702937375635,18.4,,,,,,,,,,
"  7335 (1989 JA)",1.771276978580955,.4841152212559304,15.19727451464078,61.38458872879389,232.1802586538024,.9137748321897001,2.628779124972211,2.35742518784295,17.0,1.8,,,12.,,,,,,
"  7336 Saunders (1989 RS1)",2.306795033690566,.4790617838319846,7.168200889965154,174.5699748721432,181.1378127213731,1.201697689916,3.411892377465132,3.50365805474202,18.8,,,,6.423,,,,,Sq,
"  7341 (1991 VK)",1.841747505356057,.5067560954371678,5.420060189915763,294.8729989875839,173.3597819074952,.9084307307606772,2.775064279951436,2.49950113143235,16.7,,,,4.2096,,,,,Sq,
"  7350 (1993 VA)",1.355605880499107,.391081287462034,7.262205518957853,133.1576260549082,336.5693627169401,.8254537874624118,1.885757973535801,1.57836836711628,17.0,,,,,,,,,,
"  7358 Oze (1995 YA3)",2.19791501488052,.5027187775771728,4.658961937325974,266.08129190243,91.36773719509171,1.092981865381272,3.302848164379768,3.25855117627217,14.6,,,,5.433,,,,,Sq,
"  7474 (1992 TC)",1.565619767672848,.2920926660950844,7.088267420653091,88.66804856483292,275.5221349241502,1.108313715642119,2.022925819703577,1.95901448170171,18.0,,,,5.540,,,,,X,
"  7480 Norwan (1994 PC)",1.567726438115951,.3168306295410195,9.454295964744357,124.4273648913637,256.7519795067998,1.071022683779574,2.064430192452328,1.96296983470398,17.0,,,,35.90,,,,,S,
"  7482 (1994 PC1)",1.346240426794592,.328298885505549,33.48897665834193,117.9020010944627,47.59132594258131,.9042711950554125,1.788209658533771,1.56203997625109,16.8,,,,2.5999,,,,,S,
"  7753 (1988 XB)",1.467721124810672,.4817555703120189,3.12282401273936,73.46853095705802,279.9950535242933,.7606382972685087,2.174803952352835,1.77817098661185,18.6,,,,,,,,,B,
"  7822 (1991 CS)",1.122771081817464,.1646032339285573,37.1215725604135,156.8726104538746,249.4445899080893,.9379593307888447,1.307582832846083,1.18972073254053,17.4,,,,2.389,,,,,S,
"  7839 (1994 ND)",2.166104253344079,.5174474066940636,27.17473598926302,102.6964824072455,228.0317388087768,1.045259224822204,3.286949281865954,3.18806549564393,17.8,,,,,,,,,,
"  7888 (1993 UC)",2.436119942612456,.6642000138683918,26.07361808123206,165.9377818103505,323.0354136292412,.818049042944197,4.054190842280716,3.80238600466097,15.1,,,,2.340,,,,,U,
"  7889 (1994 LX)",1.261564311941952,.3463124258449409,36.90719421354201,111.2925025494042,349.1413656529865,.8246689147139304,1.698459709169972,1.41700797518118,15.1,,,,2.741,,,,,V,
"  7977 (1977 QQ5)",2.226543360639652,.4652245619812012,25.16831933023166,134.2289115977349,248.0963177950745,1.190700700953918,3.262386020325386,3.32242310291592,15.2,,,,7.457,,,,,S,
"  8013 Gordonmoore (1990 KA)",2.198703557026065,.4321854561613287,7.571962430468098,105.5849004397463,146.7595817875599,1.248455857269219,3.148951256782911,3.26030493065002,16.9,2.3,,,6.,,,,,,
"  8014 (1990 MF)",1.747012948186527,.4557521059715163,1.864342053836375,210.3883631066945,114.2085572569877,.9508081178910096,2.543217778482044,2.30915129116344,18.7,0.7,,,,,,,,,
"  8034 Akka (1992 LR)",1.82989385282653,.4096081530780047,2.023598708915573,232.9541835058661,68.1052487617977,1.080354411441461,2.579433294211598,2.47540947872748,17.8,,,,7.283,,,,,,
"  8035 (1992 TB)",1.341588004278492,.4621273288344732,28.30642202233647,185.6489746205862,6.038803913131928,.7216035234649006,1.961572485092083,1.55394968177034,17.0,,,,,,,,,,
"  8037 (1993 HO1)",1.986416128130609,.4179212875310646,5.908177585273753,22.48056021547726,105.670232727026,1.156250542289793,2.816581713971425,2.7997132412373,16.2,,,,13.04,,,,,,
"  8176 (1991 WA)",1.57495192767134,.6429457243690211,39.60663823465698,66.59483032873455,241.8381802659894,.5623433196883043,2.587560535654376,1.97655614763372,16.9,,,,7.111,,,,,Q,
"  8201 (1994 AH2)",2.537764144975113,.7068175983088414,9.553729564062971,164.1300009031728,25.07833860908369,.7440277869495133,4.331500503000713,4.04282635279339,15.8,,,,24.,,,,,O,
"  8507 (1991 CB1)",1.687079871422885,.5948583778717508,14.58643424338495,317.4452085562779,345.6818233653947,.6835062757681859,2.690653467077585,2.19134959607422,17.3,,,,,,,,,,
"  8566 (1996 EN)",1.506499784450433,.4305109511568718,37.97013444467947,164.1484944622322,125.1219866474816,.8579351293290549,2.155064439571812,1.84910602242085,16.3,,,,,,,,,U,
"  8567 (1996 HW1)",2.045912434277574,.4486317791866009,8.436582108852242,177.1698323057927,177.0629219061469,1.128051098827636,2.963773769727511,2.92643420961687,15.3,,,,8.7573,,,,,,
"  8709 Kadlu (1994 JF1)",2.52829969941938,.4888888477998339,3.514551982995989,119.267152054228,153.5982218871958,1.292242172477573,3.764357226361188,4.0202312195381,17.0,,,,50.6,,,,,,
"  9058 (1992 JB)",1.556602375867745,.3595846014841569,16.07898501060925,218.3782449925308,306.9573090238988,.9968721308720497,2.11633262086344,1.94211407513261,17.5,,,,,,,,,,
"  9162 Kwiila (1987 OA)",1.49620071525097,.5953436828391182,9.013749565197193,180.15154781,235.6567082567653,.6054470711669347,2.386954359335006,1.83017656199082,17.9,,,,,,,,,,
